{
  "type": "FeatureCollection",
  "features": [
    {
      "type": "Feature",
      "properties": {
        "norad_id": 66491,
        "name": "STARLINK-35663",
        "group": "last-30-days",
        "lat": 14.677799550903257,
        "lon": 170.0017081268099,
        "alt_km": 408.0755090041175,
        "timestamp": "2025-12-07T20:38:12.866614+00:00",
        "meta_object_name": "STARLINK-35663",
        "meta_object_id": "2025-263G",
        "meta_epoch": "2025-12-07T06:00:04.999968",
        "meta_mean_motion": 15.55003434,
        "meta_eccentricity": 0.00012856,
        "meta_inclination": 43.0001,
        "meta_ra_of_asc_node": 157.2605,
        "meta_arg_of_pericenter": 268.6572,
        "meta_mean_anomaly": 298.4102,
        "meta_ephemeris_type": 0,
        "meta_classification_type": "U",
        "meta_norad_cat_id": 66491,
        "meta_element_set_no": 999,
        "meta_rev_at_epoch": 475,
        "meta_bstar": -0.03407017,
        "meta_mean_motion_dot": -0.02087937,
        "meta_mean_motion_ddot": 0,
        "tle_line1": "1 66491U 25263G   25341.25005787 -.02087937  00000+0 -34070-1 0  9995",
        "tle_line2": "2 66491  43.0001 157.2605 0001285 268.6572 298.4102 15.55003434  4756"
      },
      "geometry": {
        "type": "Point",
        "coordinates": [
          170.0017081268099,
          14.677799550903257
        ]
      }
    },
    {
      "type": "Feature",
      "properties": {
        "norad_id": 66492,
        "name": "STARLINK-35673",
        "group": "last-30-days",
        "lat": 15.929637311627708,
        "lon": 171.50772400427775,
        "alt_km": 407.9075789107983,
        "timestamp": "2025-12-07T20:38:12.866624+00:00",
        "meta_object_name": "STARLINK-35673",
        "meta_object_id": "2025-263H",
        "meta_epoch": "2025-12-07T06:00:04.999968",
        "meta_mean_motion": 15.55002521,
        "meta_eccentricity": 0.00013819,
        "meta_inclination": 43.0001,
        "meta_ra_of_asc_node": 157.2558,
        "meta_arg_of_pericenter": 269.706,
        "meta_mean_anomaly": 299.2768,
        "meta_ephemeris_type": 0,
        "meta_classification_type": "U",
        "meta_norad_cat_id": 66492,
        "meta_element_set_no": 999,
        "meta_rev_at_epoch": 475,
        "meta_bstar": -0.034009039,
        "meta_mean_motion_dot": -0.02084601,
        "meta_mean_motion_ddot": 0,
        "tle_line1": "1 66492U 25263H   25341.25005787 -.02084601  00000+0 -34009-1 0  9993",
        "tle_line2": "2 66492  43.0001 157.2558 0001381 269.7060 299.2768 15.55002521  4758"
      },
      "geometry": {
        "type": "Point",
        "coordinates": [
          171.50772400427775,
          15.929637311627708
        ]
      }
    },
    {
      "type": "Feature",
      "properties": {
        "norad_id": 66493,
        "name": "STARLINK-35597",
        "group": "last-30-days",
        "lat": 17.170920399862034,
        "lon": 173.03174536415398,
        "alt_km": 407.67472470574376,
        "timestamp": "2025-12-07T20:38:12.866634+00:00",
        "meta_object_name": "STARLINK-35597",
        "meta_object_id": "2025-263J",
        "meta_epoch": "2025-12-07T06:00:04.999968",
        "meta_mean_motion": 15.54994577,
        "meta_eccentricity": 0.00012743,
        "meta_inclination": 43.0004,
        "meta_ra_of_asc_node": 157.2503,
        "meta_arg_of_pericenter": 270.6508,
        "meta_mean_anomaly": 300.254,
        "meta_ephemeris_type": 0,
        "meta_classification_type": "U",
        "meta_norad_cat_id": 66493,
        "meta_element_set_no": 999,
        "meta_rev_at_epoch": 475,
        "meta_bstar": -0.033828492,
        "meta_mean_motion_dot": -0.02074127,
        "meta_mean_motion_ddot": 0,
        "tle_line1": "1 66493U 25263J   25341.25005787 -.02074127  00000+0 -33828-1 0  9994",
        "tle_line2": "2 66493  43.0004 157.2503 0001274 270.6508 300.2540 15.54994577  4752"
      },
      "geometry": {
        "type": "Point",
        "coordinates": [
          173.03174536415398,
          17.170920399862034
        ]
      }
    },
    {
      "type": "Feature",
      "properties": {
        "norad_id": 66494,
        "name": "STARLINK-35689",
        "group": "last-30-days",
        "lat": 13.418431079461902,
        "lon": 168.51562600067396,
        "alt_km": 408.501850116907,
        "timestamp": "2025-12-07T20:38:12.866644+00:00",
        "meta_object_name": "STARLINK-35689",
        "meta_object_id": "2025-263K",
        "meta_epoch": "2025-12-07T06:00:04.999968",
        "meta_mean_motion": 15.54996879,
        "meta_eccentricity": 0.00012255,
        "meta_inclination": 43.0001,
        "meta_ra_of_asc_node": 157.2654,
        "meta_arg_of_pericenter": 255.4558,
        "meta_mean_anomaly": 309.6965,
        "meta_ephemeris_type": 0,
        "meta_classification_type": "U",
        "meta_norad_cat_id": 66494,
        "meta_element_set_no": 999,
        "meta_rev_at_epoch": 475,
        "meta_bstar": -0.033898333,
        "meta_mean_motion_dot": -0.02078069,
        "meta_mean_motion_ddot": 0,
        "tle_line1": "1 66494U 25263K   25341.25005787 -.02078069  00000+0 -33898-1 0  9991",
        "tle_line2": "2 66494  43.0001 157.2654 0001225 255.4558 309.6965 15.54996879  4750"
      },
      "geometry": {
        "type": "Point",
        "coordinates": [
          168.51562600067396,
          13.418431079461902
        ]
      }
    },
    {
      "type": "Feature",
      "properties": {
        "norad_id": 66495,
        "name": "STARLINK-35832",
        "group": "last-30-days",
        "lat": 18.39774722338608,
        "lon": 174.57394206284977,
        "alt_km": 407.6989109001952,
        "timestamp": "2025-12-07T20:38:12.866655+00:00",
        "meta_object_name": "STARLINK-35832",
        "meta_object_id": "2025-263L",
        "meta_epoch": "2025-12-07T06:00:04.999968",
        "meta_mean_motion": 15.54998928,
        "meta_eccentricity": 0.00013481,
        "meta_inclination": 43.0005,
        "meta_ra_of_asc_node": 157.2459,
        "meta_arg_of_pericenter": 264.5498,
        "meta_mean_anomaly": 308.2696,
        "meta_ephemeris_type": 0,
        "meta_classification_type": "U",
        "meta_norad_cat_id": 66495,
        "meta_element_set_no": 999,
        "meta_rev_at_epoch": 475,
        "meta_bstar": -0.033920242,
        "meta_mean_motion_dot": -0.02079484,
        "meta_mean_motion_ddot": 0,
        "tle_line1": "1 66495U 25263L   25341.25005787 -.02079484  00000+0 -33920-1 0  9990",
        "tle_line2": "2 66495  43.0005 157.2459 0001348 264.5498 308.2696 15.54998928  4751"
      },
      "geometry": {
        "type": "Point",
        "coordinates": [
          174.57394206284977,
          18.39774722338608
        ]
      }
    },
    {
      "type": "Feature",
      "properties": {
        "norad_id": 66496,
        "name": "STARLINK-35909",
        "group": "last-30-days",
        "lat": 19.614050795067655,
        "lon": 176.14080937713706,
        "alt_km": 407.3799865407109,
        "timestamp": "2025-12-07T20:38:12.866666+00:00",
        "meta_object_name": "STARLINK-35909",
        "meta_object_id": "2025-263M",
        "meta_epoch": "2025-12-07T06:00:04.999968",
        "meta_mean_motion": 15.54995942,
        "meta_eccentricity": 0.00012661,
        "meta_inclination": 43.0001,
        "meta_ra_of_asc_node": 157.2409,
        "meta_arg_of_pericenter": 269.5422,
        "meta_mean_anomaly": 305.1957,
        "meta_ephemeris_type": 0,
        "meta_classification_type": "U",
        "meta_norad_cat_id": 66496,
        "meta_element_set_no": 999,
        "meta_rev_at_epoch": 475,
        "meta_bstar": -0.033840874,
        "meta_mean_motion_dot": -0.02074892,
        "meta_mean_motion_ddot": 0,
        "tle_line1": "1 66496U 25263M   25341.25005787 -.02074892  00000+0 -33841-1 0  9991",
        "tle_line2": "2 66496  43.0001 157.2409 0001266 269.5422 305.1957 15.54995942  4753"
      },
      "geometry": {
        "type": "Point",
        "coordinates": [
          176.14080937713706,
          19.614050795067655
        ]
      }
    },
    {
      "type": "Feature",
      "properties": {
        "norad_id": 66497,
        "name": "STARLINK-35899",
        "group": "last-30-days",
        "lat": 20.81329832988746,
        "lon": 177.7262337624707,
        "alt_km": 407.2859791640103,
        "timestamp": "2025-12-07T20:38:12.866676+00:00",
        "meta_object_name": "STARLINK-35899",
        "meta_object_id": "2025-263N",
        "meta_epoch": "2025-12-07T06:00:04.999968",
        "meta_mean_motion": 15.5500322,
        "meta_eccentricity": 0.00014968,
        "meta_inclination": 43.0003,
        "meta_ra_of_asc_node": 157.2354,
        "meta_arg_of_pericenter": 271.6398,
        "meta_mean_anomaly": 305.0127,
        "meta_ephemeris_type": 0,
        "meta_classification_type": "U",
        "meta_norad_cat_id": 66497,
        "meta_element_set_no": 999,
        "meta_rev_at_epoch": 475,
        "meta_bstar": -0.034060756,
        "meta_mean_motion_dot": -0.02087547,
        "meta_mean_motion_ddot": 0,
        "tle_line1": "1 66497U 25263N   25341.25005787 -.02087547  00000+0 -34061-1 0  9998",
        "tle_line2": "2 66497  43.0003 157.2354 0001496 271.6398 305.0127 15.55003220  4754"
      },
      "geometry": {
        "type": "Point",
        "coordinates": [
          177.7262337624707,
          20.81329832988746
        ]
      }
    }
  ]
}